Mosque Name,Address,City,State,Zip
Masjid Al Rasul,11211 S. Central Ave,Los Angeles,CA,90059
Masjid Al Salam,2900 Florence Ave,Los Angeles,CA,90043
Masjid Bilal Ibn Rabah,5450 Crenshaw Blvd,Los Angeles,CA,90043
Bilal Islamic Center,4016 S. Central Ave,Los Angeles,CA,90011
Masjid Al Mumin,1635 S. St. Andrews Place,Los Angeles,CA,90019
Masjid Al-Muminun,1127 Hank Aaron Dr,Atlanta,GA,30315
Masjid Al Quran,500 McDonough Blvd,Atlanta,GA,30315
West End Community Masjid,1193 Lucille SW,Atlanta,GA,30310
Masjid Ash-Shura,3095 Jonesboro Rd. SE,Atlanta,GA,30354
Atlanta Masjid of al Islam,560 Fayetteville Rd SE,Atlanta,GA,30316
Masjid al-Latif,1747 W. 51st St.,Chicago,IL,60609
Masjid Al-Farooq,8950 S. Stony Island Ave.,Chicago,IL,60617
The Ephraim Bahar Cultural Center,2525 W. 71st St.,Chicago,IL,60629
Masjid Al-Ihsan,321 E. Pershing Rd.,Chicago,IL,60653
Masjid Al Faatir,1200 E. 47th St,Chicago,IL,60653
Masjid Mujahideen,413 S 60TH ST,PHILADELPHIA,PA,19143
International Muslim Brotherhood,4637 Lancaster Ave,PHILADELPHIA,PA,19131
Masjidullah,7700 Ogontz Ave,PHILADELPHIA,PA,19150
Masjid Al-Hashar,P.O. Box 12642,PHILADELPHIA,PA,19129
Masjid As-Sunnah an-Nabawiyyah,4944 Germantown Ave.,Philadelphia,PA,19144
Philadelphia Masjid,4700 Wyalusing Avenue,PHILADELPHIA,PA,19131
Masjid Muhammad,414 E. Penn St.,Philadelphia,PA,19138
Islamic Cultural Preservation Information Center,4243 Lancaster Ave.,Philadelphia,PA,19104
United Muslim Masjid,810 S. 15th St.,Philadelphia,PA,19146
Masjid Ahlil Hadeeth,6711 Woodland Ave.,Philadelphia,PA,19142
Masjid Muqbil Bin Hadee,2735 W. Alleghany Ave.,Philadelphia,PA,19132
Masjid Al-Wasatiyah Wal-Itidaal,5727 Hoffman Ave.,Philadelphia,PA,19143
Masjid ibn Uthaymeen,6502 Elmwood Ave.,Philadelphia,PA,19142
Nasir Mosque,5120 N. 10th St.,Philadelphia,PA,19141
